#aV2007  6  1  0  0   .00000000      96 DD+AD WGS84 FIT  NGA
## 1429 432000.00000000   900.00000000 54252  .0000000000000
+   30     1  2  3  4  5  6  7  8  9 10 11 12 13 14 16 17 18
+         19 20 21 22 23 24 25 26 27 28 29 30 31  0  0  0  0
+          0  0  0  0  0  0  0  0  0  0  0  0  0  0  0  0  0
+          0  0  0  0  0  0  0  0  0  0  0  0  0  0  0  0  0
+          0  0  0  0  0  0  0  0  0  0  0  0  0  0  0  0  0
++         0  0  0  0  0  0  0  0  0  0  0  0  0  0  0  0  0
++         0  0  0  0  0  0  0  0  0  0  0  0  0  0  0  0  0
++         0  0  0  0  0  0  0  0  0  0  0  0  0  0  0  0  0
++         0  0  0  0  0  0  0  0  0  0  0  0  0  0  0  0  0
++         0  0  0  0  0  0  0  0  0  0  0  0  0  0  0  0  0
%c cc cc ccc ccc cccc cccc cccc cccc ccccc ccccc ccccc ccccc
%c cc cc ccc ccc cccc cccc cccc cccc ccccc ccccc ccccc ccccc
%f  0.0000000  0.000000000  0.00000000000  0.000000000000000
%f  0.0000000  0.000000000  0.00000000000  0.000000000000000
%i    0    0    0    0      0      0      0      0         0
%i    0    0    0    0      0      0      0      0         0
/*      NGA, ST. LOUIS,MO.                                  
/*   EPHEMERIS COMPUTED FROM  3 DAYS OF DATA                
/* CCCCCCCCCCCCCCCCCCCCCCCCCCCCCCCCCCCCCCCCCCCCCCCCCCCCCCCCC
/* CCCCCCCCCCCCCCCCCCCCCCCCCCCCCCCCCCCCCCCCCCCCCCCCCCCCCCCCC
*  2007  6  1  1 15   .00000000                                                 
P  1  13755.378176 -17331.356370 -14433.402937    131.476519                    
V  1  -2740.647862  18523.201747 -24565.764630       .023624                    
P  2 -21517.133871  13385.976905   7229.315378    110.809208                    
V  2 -10121.934706    123.444419 -29779.422335       .028966                    
P  3  10634.287663 -20967.321542  11821.763528     65.723959                    
V  3   2287.982922  15776.361791  25809.769811       .056627                    
P  4 -25799.284303   6226.162291  -3440.826448     10.454860                    
V  4   3074.069275  -4151.630516 -30799.513753      -.004949                    
P  5  11555.529811  20111.283775 -13316.532689    -11.613378                    
V  5 -14960.781254  -7451.400877 -24523.043582       .546745                    
P  6   8492.446331  20168.629236  15215.401790    201.262679                    
V  6  -5258.051558  18519.563177 -21931.900262       .116338                    
P  7  11115.165683  16821.119263  17606.720907    277.301096                    
V  7  -4571.930281  21401.813428 -17980.545853      -.179508                    
P  8 -23367.499826  -1836.540823  12792.727732   -109.284959                    
V  8  15061.839716  -6246.647062  25951.229100      -.015247                    
P  9  -4121.591276  16955.943361 -20558.457041     72.748084                    
V  9 -23407.981980   8341.275515  12142.003584       .015169                    
P 10 -11264.331934   9996.037383  21773.345301    102.701179                    
V 10 -20811.185197 -18563.825140  -1921.407435       .005580                    
P 11    647.109173 -18206.418430 -19356.776599     17.350798                    
V 11  22466.659032 -10489.474725  10972.561887       .009584                    
P 12   6860.907135  20192.998742 -15759.987679    -45.837237                    
V 12 -16665.264618 -11552.407756 -21846.002057      -.007407                    
P 13  -7325.429178 -18793.488828  17194.736481    177.476189                    
V 13   5785.124822 -21207.301263 -20548.084267       .034169                    
P 14  14907.951355  -1030.243887 -21867.743006     22.775907                    
V 14  -5226.358841  27402.307035  -4912.952631       .018207                    
P 16  15976.808623  -5164.097229  20699.681421    152.186086                    
V 16  19109.403669  17716.232623 -10222.760139       .029013                    
P 17 -15133.994129  -1913.304584 -21722.754418     66.224705                    
V 17   4956.522399 -27183.529818  -1186.153719      -.012581                    
P 18  20277.065494  17381.941986  -1313.582677   -248.554495                    
V 18   -540.629013   3274.345122  31301.590875       .009695                    
P 19   7826.845160 -25234.776716   2113.406843     38.913162                    
V 19   2301.082051   3224.250485  31603.113310       .033076                    
P 20  -7956.260952 -20472.743815 -15069.471148    -25.164415                    
V 20  15988.306162  10400.034489 -22696.927490      -.003808                    
P 21  17790.037772   8281.540817  18271.651528     77.483186                    
V 21 -21254.350054   8439.106085  16401.776058       .004205                    
P 22  21934.953504   8630.331934 -12121.184110    184.604345                    
V 22   9645.897937  12585.318202  26055.438589       .018660                    
P 23  -1381.129252 -24974.026949   8536.769500    170.407796                    
V 23   4429.292440 -10378.890909 -29554.393459       .028130                    
P 24   4212.946789  14821.038869  21840.096835      4.107280                    
V 24 -26068.778011   7968.189796    -95.806410       .027675                    
P 25  -6844.248650 -13828.035855  22024.954217    288.913987                    
V 25  24414.041172 -11570.338475    493.452427       .238680                    
P 26  -8424.023473  24339.957326   4635.282955   -225.145342                    
V 26   -851.004552  -6871.615739  32096.788840      -.210352                    
P 27 -16949.672584  -7606.337381  19713.998816    113.999493                    
V 27  21281.348926 -10189.379309  14627.788581       .023266                    
P 28 -22278.498577 -11836.000790  -8509.897508      -.051964                    
V 28  -6774.769808  -9200.889489  29028.595796      -.009165                    
P 29 -10609.639550  22133.099786   9853.639780      3.267619                    
V 29    267.884060 -12454.596116  29220.620677       .003611                    
P 30  16031.949079  19839.995170  -7917.756498     35.386468                    
V 30  -9373.375120  -3657.400338 -29175.186638       .010205                    
P 31  25378.013101  -7613.895578  -2164.905990     18.772127                    
V 31  -1883.824723   3547.393843 -31597.656147      -.006362                    
EOF
